IRIDIUM 106             
1 41917U 17003A   23315.94131936  .00000155  00000+0  48372-4 0  9991
2 41917  86.3939 124.8410 0002203  95.6888 264.4559 14.34216450357294
IRIDIUM 103             
1 41918U 17003B   23315.92863848  .00000206  00000+0  66561-4 0  9991
2 41918  86.3938 124.7489 0001776  97.1693 262.9705 14.34216051357310
IRIDIUM 109             
1 41919U 17003C   23315.93498624  .00000148  00000+0  45706-4 0  9992
2 41919  86.3940 124.7901 0001919  84.5214 275.6201 14.34218962357282
IRIDIUM 102             
1 41920U 17003D   23315.90327978  .00000002  00000+0 -64614-5 0  9994
2 41920  86.3943 124.7473 0001948  84.5726 275.5692 14.34217676357364
IRIDIUM 105             
1 41921U 17003E   23315.87393674  .00000512  00000+0  17589-3 0  9999
2 41921  86.3944  93.1654 0002002  94.5975 265.5449 14.34227777359213
IRIDIUM 104             
1 41922U 17003F   23315.91595145  .00000348  00000+0  11725-3 0  9995
2 41922  86.3941 124.7699 0001827  90.5928 269.5477 14.34217312357351
IRIDIUM 114             
1 41923U 17003G   23315.92228199  .00000171  00000+0  54007-4 0  9994
2 41923  86.3940 124.7539 0002401  93.5447 266.6023 14.34220960357338
IRIDIUM 108             
1 41924U 17003H   23315.81103466  .00000177  00000+0  55962-4 0  9999
2 41924  86.3938  93.1310 0002169  98.4145 261.7297 14.34217609359171
